NORAD_CAT_ID,OBJECT_NAME,OBJECT_TYPE,EPOCH,MEAN_MOTION,ECCENTRICITY,INCLINATION,RA_OF_ASC_NODE,ARG_OF_PERICENTER,MEAN_ANOMALY,BSTAR,MEAN_MOTION_DOT,MEAN_MOTION_DDOT,TLE_LINE0,TLE_LINE1,TLE_LINE2,SEMIMAJOR_AXIS,PERIOD,APOGEE,PERIGEE,DECAYED
55770.0,STARLINK-5557,PAYLOAD,2023-09-07 02:05:12,14.98331763,0.0003006,70.0027,10.5234,265.7931,94.2885,4.5532e-05,4.5e-06,0.0,0 STARLINK-5557,1 55770U 23028AF  23250.08695219  .00000450  00000-0  45532-4 0  9993,2 55770  70.0027  10.5234 0003006 265.7931  94.2885 14.98331763 29528,6950.187,96.107,574.142,569.963,0.0
55770.0,STARLINK-5557,PAYLOAD,2023-09-07 08:29:44,14.98333997,0.0002935,70.0028,9.8503,266.3491,93.7332,2.1506e-05,1.64e-06,0.0,0 STARLINK-5557,1 55770U 23028AF  23250.35399119  .00000164  00000-0  21506-4 0  9990,2 55770  70.0028   9.8503 0002935 266.3491  93.7332 14.98333997 29574,6950.181,96.107,574.085,570.006,0.0
55770.0,STARLINK-5557,PAYLOAD,2023-09-07 16:30:25,14.98329077,0.0003132,70.0022,9.0092,266.646,93.4341,9.4979e-07,-8.2e-07,0.0,0 STARLINK-5557,1 55770U 23028AF  23250.68779404 -.00000082  00000-0  94979-6 0  9991,2 55770  70.0022   9.0092 0003132 266.6460  93.4341 14.98329077 29629,6950.196,96.107,574.238,569.884,0.0
55770.0,STARLINK-5557,PAYLOAD,2023-09-08 10:07:53,14.98331512,0.0003041,70.0005,7.157,264.8976,95.1836,-2.4225e-05,-3.82e-06,0.0,0 STARLINK-5557,1 55770U 23028AF  23251.42215233 -.00000382  00000-0 -24225-4 0  9998,2 55770  70.0005   7.1570 0003041 264.8976  95.1836 14.98331512 29727,6950.188,96.107,574.167,569.94,0.0
55770.0,STARLINK-5557,PAYLOAD,2023-09-08 11:44:01,14.98337659,0.0002946,70.0018,6.9897,269.5967,90.4854,-0.00014486,-1.821e-05,0.0,0 STARLINK-5557,1 55770U 23028AF  23251.48891183 -.00001821  00000-0 -14486-3 0  9994,2 55770  70.0018   6.9897 0002946 269.5967  90.4854 14.98337659 29743,6950.169,96.107,574.082,569.987,0.0
55770.0,STARLINK-5557,PAYLOAD,2023-09-08 18:08:34,14.98334928,0.0003046,70.0022,6.3169,270.988,89.093,-1.7293e-06,-1.14e-06,0.0,0 STARLINK-5557,1 55770U 23028AF  23251.75594968 -.00000114  00000-0 -17293-5 0  9990,2 55770  70.0022   6.3169 0003046 270.9880  89.0930 14.98334928 29785,6950.178,96.107,574.16,569.926,0.0
55770.0,STARLINK-5557,PAYLOAD,2023-09-09 10:09:55,14.98325006,0.0003005,70.0024,4.6343,272.9219,87.1596,-1.8293e-05,-3.11e-06,0.0,0 STARLINK-5557,1 55770U 23028AF  23252.42355659 -.00000311  00000-0 -18293-4 0  9996,2 55770  70.0024   4.6343 0003005 272.9219  87.1596 14.98325006 29879,6950.208,96.107,574.162,569.985,0.0
55770.0,STARLINK-5557,PAYLOAD,2023-09-09 13:22:11,14.98325678,0.0002993,70.0025,4.2978,273.6097,86.4719,-1.0362e-05,-2.17e-06,0.0,0 STARLINK-5557,1 55770U 23028AF  23252.55707642 -.00000217  00000-0 -10362-4 0  9997,2 55770  70.0025   4.2978 0002993 273.6097  86.4719 14.98325678 29905,6950.206,96.107,574.151,569.991,0.0
55770.0,STARLINK-5557,PAYLOAD,2023-09-10 00:35:07,14.9832966,0.0003165,70.0018,3.1196,268.8062,91.2735,3.2553e-05,2.95e-06,0.0,0 STARLINK-5557,1 55770U 23028AF  23253.02439206  .00000295  00000-0  32553-4 0  9998,2 55770  70.0018   3.1196 0003165 268.8062  91.2735 14.98329660 29960,6950.194,96.107,574.259,569.859,0.0
55770.0,STARLINK-5557,PAYLOAD,2023-09-10 13:24:12,14.9832974,0.0003219,70.0016,1.773,267.7866,92.2924,-5.5108e-06,-1.59e-06,0.0,0 STARLINK-5557,1 55770U 23028AF  23253.55847376 -.00000159  00000-0 -55108-5 0  9990,2 55770  70.0016   1.7730 0003219 267.7866  92.2924 14.98329740 30058,6950.194,96.107,574.296,569.821,0.0
55770.0,STARLINK-5557,PAYLOAD,2023-09-11 10:13:56,14.98329462,0.0003216,70.0016,359.5851,268.5171,91.5619,1.7851e-06,-7.2e-07,0.0,0 STARLINK-5557,1 55770U 23028AF  23254.42635384 -.00000072  00000-0  17851-5 0  9997,2 55770  70.0016 359.5851 0003216 268.5171  91.5619 14.98329462 30178,6950.195,96.107,574.295,569.824,0.0
55770.0,STARLINK-5557,PAYLOAD,2023-09-11 13:26:12,14.98330246,0.0003036,70.0017,359.2478,265.7861,94.2951,4.4379e-05,4.37e-06,0.0,0 STARLINK-5557,1 55770U 23028AF  23254.55987202  .00000437  00000-0  44379-4 0  9998,2 55770  70.0017 359.2478 0003036 265.7861  94.2951 14.98330246 30201,6950.192,96.107,574.167,569.947,0.0
55770.0,STARLINK-5557,PAYLOAD,2023-09-12 10:15:57,14.98327588,0.0003194,70.0021,357.0605,269.5152,90.5641,6.472e-05,6.79e-06,0.0,0 STARLINK-5557,1 55770U 23028AF  23255.42775206  .00000679  00000-0  64720-4 0  9994,2 55770  70.0021 357.0605 0003194 269.5152  90.5641 14.98327588 30327,6950.2,96.107,574.285,569.845,0.0
55770.0,STARLINK-5557,PAYLOAD,2023-09-12 13:28:13,14.98330355,0.0003163,70.0019,356.7236,269.2393,90.8403,6.5865e-05,6.93e-06,0.0,0 STARLINK-5557,1 55770U 23028AF  23255.56127033  .00000693  00000-0  65865-4 0  9995,2 55770  70.0019 356.7236 0003163 269.2393  90.8403 14.98330355 30358,6950.192,96.107,574.255,569.858,0.0
55770.0,STARLINK-5557,PAYLOAD,2023-09-12 16:40:29,14.98336432,0.0003072,70.0023,356.3868,269.1654,90.9153,0.00012103,1.352e-05,0.0,0 STARLINK-5557,1 55770U 23028AF  23255.69478458  .00001352  00000-0  12103-3 0  9998,2 55770  70.0023 356.3868 0003072 269.1654  90.9153 14.98336432 30364,6950.173,96.107,574.173,569.903,0.0
55770.0,STARLINK-5557,PAYLOAD,2023-09-13 13:30:13,14.98336644,0.0003094,70.0021,354.1983,271.1085,88.972,8.0373e-05,8.66e-06,0.0,0 STARLINK-5557,1 55770U 23028AF  23256.56266194  .00000866  00000-0  80373-4 0  9991,2 55770  70.0021 354.1983 0003094 271.1085  88.9720 14.98336644 30509,6950.172,96.107,574.188,569.887,0.0
55770.0,STARLINK-5557,PAYLOAD,2023-09-13 16:42:29,14.98340197,0.0003057,70.0026,353.8623,274.1052,85.9758,0.0001351,1.52e-05,0.0,0 STARLINK-5557,1 55770U 23028AF  23256.69617782  .00001520  00000-0  13510-3 0  9994,2 55770  70.0026 353.8623 0003057 274.1052  85.9758 14.98340197 30514,6950.161,96.106,574.151,569.902,0.0
55770.0,STARLINK-5557,PAYLOAD,2023-09-14 10:20:01,14.98310068,0.0003012,70.0021,352.0108,270.0212,90.0601,-0.00025967,-3.188e-05,0.0,0 STARLINK-5557,1 55770U 23028AF  23257.43056739 -.00003188  00000-0 -25967-3 0  9999,2 55770  70.0021 352.0108 0003012 270.0212  90.0601 14.98310068 30622,6950.255,96.108,574.213,570.026,0.0
55770.0,STARLINK-5557,PAYLOAD,2023-09-14 13:32:17,14.9830754,0.0002519,70.0039,351.6773,250.1264,109.9623,-0.00026242,-3.221e-05,0.0,0 STARLINK-5557,1 55770U 23028AF  23257.56409031 -.00003221  00000-0 -26242-3 0  9995,2 55770  70.0039 351.6773 0002519 250.1264 109.9623 14.98307540 30659,6950.262,96.108,573.878,570.377,0.0
55770.0,STARLINK-5557,PAYLOAD,2023-09-14 16:44:33,14.98308952,0.0002509,70.0027,351.3385,255.7598,104.3282,-0.00022054,-2.722e-05,0.0,0 STARLINK-5557,1 55770U 23028AF  23257.69761011 -.00002722  00000-0 -22054-3 0  9990,2 55770  70.0027 351.3385 0002509 255.7598 104.3282 14.98308952 30672,6950.258,96.108,573.867,570.379,0.0
55770.0,STARLINK-5557,PAYLOAD,2023-09-14 23:09:04,14.98324232,0.0003662,70.0027,350.6636,273.9006,86.1734,-0.00019161,-2.378e-05,0.0,0 STARLINK-5557,1 55770U 23028AF  23257.96463942 -.00002378  00000-0 -19161-3 0  9994,2 55770  70.0027 350.6636 0003662 273.9006  86.1734 14.98324232 30702,6950.211,96.107,574.621,569.531,0.0
55770.0,STARLINK-5557,PAYLOAD,2023-09-15 13:34:18,14.9831573,0.0002041,70.0049,349.1513,243.2095,116.8855,-0.00010366,-1.329e-05,0.0,0 STARLINK-5557,1 55770U 23028AF  23258.56548855 -.00001329  00000-0 -10366-3 0  9991,2 55770  70.0049 349.1513 0002041 243.2095 116.8855 14.98315730 30800,6950.237,96.108,573.521,570.683,0.0
55770.0,STARLINK-5557,PAYLOAD,2023-09-15 15:10:27,14.98294888,0.0002178,70.0046,348.9824,258.2014,101.8901,-0.00032974,-4.021e-05,0.0,0 STARLINK-5557,1 55770U 23028AF  23258.63226651 -.00004021  00000-0 -32974-3 0  9997,2 55770  70.0046 348.9824 0002178 258.2014 101.8901 14.98294888 30803,6950.301,96.109,573.68,570.653,0.0
55770.0,STARLINK-5557,PAYLOAD,2023-09-15 23:11:02,14.98408622,0.0002383,70.0049,348.14,276.2253,83.8635,-0.00066348,-8.016e-05,0.0,0 STARLINK-5557,1 55770U 23028AF  23258.96600542 -.00008016  00000-0 -66348-3 0  9998,2 55770  70.0049 348.1400 0002383 276.2253  83.8635 14.98408622 30852,6949.95,96.102,573.471,570.159,0.0
55770.0,STARLINK-5557,PAYLOAD,2023-09-16 10:24:02,14.98300361,0.0002482,70.0035,346.9622,265.0992,94.9884,0.00036389,4.248e-05,0.0,0 STARLINK-5557,1 55770U 23028AF  23259.43336502  .00004248  00000-0  36389-3 0  9996,2 55770  70.0035 346.9622 0002482 265.0992  94.9884 14.98300361 30923,6950.285,96.109,573.875,570.424,0.0
55770.0,STARLINK-5557,PAYLOAD,2023-09-16 13:36:17,14.98328023,0.000254,70.0032,346.6255,266.4015,93.6854,0.00038422,4.494e-05,0.0,0 STARLINK-5557,1 55770U 23028AF  23259.56686876  .00004494  00000-0  38422-3 0  9995,2 55770  70.0032 346.6255 0002540 266.4015  93.6854 14.98328023 30956,6950.199,96.107,573.829,570.299,0.0
55770.0,STARLINK-5557,PAYLOAD,2023-09-16 16:48:33,14.98326479,0.0002711,70.0029,346.2887,263.9195,96.1655,0.00033693,3.929e-05,0.0,0 STARLINK-5557,1 55770U 23028AF  23259.70039050  .00003929  00000-0  33693-3 0  9994,2 55770  70.0029 346.2887 0002711 263.9195  96.1655 14.98326479 30961,6950.204,96.107,573.953,570.185,0.0
55770.0,STARLINK-5557,PAYLOAD,2023-09-16 23:13:07,14.98314244,0.0003269,70.003,345.615,275.1107,84.9679,7.3225e-05,7.8e-06,0.0,0 STARLINK-5557,1 55770U 23028AF  23259.96744337  .00000780  00000-0  73225-4 0  9991,2 55770  70.0030 345.6150 0003269 275.1107  84.9679 14.98314244 31000,6950.242,96.108,574.379,569.835,0.0
55770.0,STARLINK-5557,PAYLOAD,2023-09-17 13:38:18,14.98334457,0.0002971,70.0022,344.1012,262.0137,98.0685,7.8357e-05,8.42e-06,0.0,0 STARLINK-5557,1 55770U 23028AF  23260.56827044  .00000842  00000-0  78357-4 0  9996,2 55770  70.0022 344.1012 0002971 262.0137  98.0685 14.98334457 31101,6950.179,96.107,574.109,569.979,0.0
55770.0,STARLINK-5557,PAYLOAD,2023-09-18 10:28:03,14.98330726,0.0003178,70.0018,341.9116,273.8453,86.2342,-0.00012262,-1.556e-05,0.0,0 STARLINK-5557,1 55770U 23028AF  23261.43615553 -.00001556  00000-0 -12262-3 0  9990,2 55770  70.0018 341.9116 0003178 273.8453  86.2342 14.98330726 31224,6950.191,96.107,574.264,569.847,0.0
